NORAD_CAT_ID,OBJECT_NAME,OBJECT_TYPE,EPOCH,MEAN_MOTION,ECCENTRICITY,INCLINATION,RA_OF_ASC_NODE,ARG_OF_PERICENTER,MEAN_ANOMALY,BSTAR,MEAN_MOTION_DOT,MEAN_MOTION_DDOT,TLE_LINE0,TLE_LINE1,TLE_LINE2,SEMIMAJOR_AXIS,PERIOD,APOGEE,PERIGEE,DECAYED
52701.0,STARLINK-4003,PAYLOAD,2024-01-05 12:48:13,15.08838492,0.0001212,53.2171,99.2264,96.0378,264.0752,4.128e-05,3.69e-06,0.0,0 STARLINK-4003,1 52701U 22053AX  24005.53348657  .00000369  00000-0  41280-4 0  9996,2 52701  53.2171  99.2264 0001212  96.0378 264.0752 15.08838492 91427,6917.885,95.438,540.588,538.912,0.0
52701.0,STARLINK-4003,PAYLOAD,2024-01-06 12:39:00,15.08842714,0.0001191,53.2166,94.7673,93.6637,266.4491,-4.3858e-05,-9.86e-06,0.0,0 STARLINK-4003,1 52701U 22053AX  24006.52708882 -.00000986  00000-0 -43858-4 0  9996,2 52701  53.2166  94.7673 0001191  93.6637 266.4491 15.08842714 91149,6917.872,95.437,540.561,538.913,0.0
52701.0,STARLINK-4003,PAYLOAD,2024-01-06 15:49:46,15.08846129,0.0001257,53.2168,94.1712,102.0641,258.0492,-6.2549e-05,-1.283e-05,0.0,0 STARLINK-4003,1 52701U 22053AX  24006.65956677 -.00001283  00000-0 -62549-4 0  9996,2 52701  53.2168  94.1712 0001257 102.0641 258.0492 15.08846129 91593,6917.862,95.437,540.596,538.857,0.0
52701.0,STARLINK-4003,PAYLOAD,2024-01-07 12:29:47,15.08838512,0.0001155,53.217,90.3059,90.3161,269.7964,3.4863e-05,2.67e-06,0.0,0 STARLINK-4003,1 52701U 22053AX  24007.52069111  .00000267  00000-0  34863-4 0  9998,2 52701  53.2170  90.3059 0001155  90.3161 269.7964 15.08838512 91726,6917.885,95.438,540.549,538.951,0.0
52701.0,STARLINK-4003,PAYLOAD,2024-01-07 15:40:33,15.08839682,0.0001148,53.2171,89.7109,92.7494,267.3629,4.8665e-05,4.87e-06,0.0,0 STARLINK-4003,1 52701U 22053AX  24007.65316995  .00000487  00000-0  48665-4 0  9996,2 52701  53.2171  89.7109 0001148  92.7494 267.3629 15.08839682 91318,6917.881,95.438,540.541,538.952,0.0
52701.0,STARLINK-4003,PAYLOAD,2024-01-08 04:23:39,15.08833655,0.0001165,53.2175,87.3313,95.0976,265.0149,1.313e-05,-7.9e-07,0.0,0 STARLINK-4003,1 52701U 22053AX  24008.18309642 -.00000079  00000-0  13130-4 0  9993,2 52701  53.2175  87.3313 0001165  95.0976 265.0149 15.08833655 91397,6917.9,95.438,540.571,538.959,0.0
52701.0,STARLINK-4003,PAYLOAD,2024-01-08 10:45:11,15.08838417,0.0001136,53.2175,86.143,92.0442,268.068,5.9743e-05,6.63e-06,0.0,0 STARLINK-4003,1 52701U 22053AX  24008.44805218  .00000663  00000-0  59743-4 0  9990,2 52701  53.2175  86.1430 0001136  92.0442 268.0680 15.08838417 91863,6917.885,95.438,540.536,538.964,0.0
52701.0,STARLINK-4003,PAYLOAD,2024-01-09 13:46:44,15.08846231,0.0001251,53.2175,81.0893,85.3718,274.7417,0.00011618,1.562e-05,0.0,0 STARLINK-4003,1 52701U 22053AX  24009.57412665  .00001562  00000-0  11618-3 0  9992,2 52701  53.2175  81.0893 0001251  85.3718 274.7417 15.08846231 92034,6917.861,95.437,540.592,538.861,0.0
52701.0,STARLINK-4003,PAYLOAD,2024-01-10 10:26:45,15.08839154,0.0001391,53.2169,77.2224,103.5537,256.561,3.774e-06,-2.28e-06,0.0,0 STARLINK-4003,1 52701U 22053AX  24010.43525323 -.00000228  00000-0  37740-5 0  9990,2 52701  53.2169  77.2224 0001391 103.5537 256.5610 15.08839154 91734,6917.883,95.438,540.71,538.786,0.0
52701.0,STARLINK-4003,PAYLOAD,2024-01-10 12:02:08,15.0886059,0.0001756,53.2175,76.9294,71.353,288.7653,-0.00022827,-3.921e-05,0.0,0 STARLINK-4003,1 52701U 22053AX  24010.50148857 -.00003921  00000-0 -22827-3 0  9993,2 52701  53.2175  76.9294 0001756  71.3530 288.7653 15.08860590 91747,6917.817,95.436,540.897,538.468,0.0
52701.0,STARLINK-4003,PAYLOAD,2024-01-11 03:56:00,15.088421,0.0001773,53.2183,73.9562,64.1236,295.9939,6.0346e-05,6.72e-06,0.0,0 STARLINK-4003,1 52701U 22053AX  24011.16389227  .00000672  00000-0  60346-4 0  9991,2 52701  53.2183  73.9562 0001773  64.1236 295.9939 15.08842100 91848,6917.874,95.437,540.966,538.512,0.0
52701.0,STARLINK-4003,PAYLOAD,2024-01-11 10:17:32,15.08844562,0.0001923,53.218,72.7667,59.1025,301.0156,7.5131e-05,9.08e-06,0.0,0 STARLINK-4003,1 52701U 22053AX  24011.42884987  .00000908  00000-0  75131-4 0  9993,2 52701  53.2180  72.7667 0001923  59.1025 301.0156 15.08844562 92312,6917.866,95.437,541.062,538.401,0.0
52701.0,STARLINK-4003,PAYLOAD,2024-01-12 10:08:20,15.08834163,0.000169,53.2185,68.3043,109.2368,250.8807,1.5201e-05,-4.6e-07,0.0,0 STARLINK-4003,1 52701U 22053AX  24012.42245478 -.00000046  00000-0  15201-4 0  9996,2 52701  53.2185  68.3043 0001690 109.2368 250.8807 15.08834163 92033,6917.898,95.438,540.932,538.594,0.0
52701.0,STARLINK-4003,PAYLOAD,2024-01-13 09:59:07,15.08843526,0.0001697,53.2184,63.8397,100.6449,259.4734,-2.6541e-05,-7.11e-06,0.0,0 STARLINK-4003,1 52701U 22053AX  24013.41605337 -.00000711  00000-0 -26541-4 0  9999,2 52701  53.2184  63.8397 0001697 100.6449 259.4734 15.08843526 92617,6917.87,95.437,540.909,538.561,0.0
52701.0,STARLINK-4003,PAYLOAD,2024-01-14 03:28:22,15.08831484,0.0001878,53.2191,60.5755,109.2981,250.8214,5.7706e-05,6.3e-06,0.0,0 STARLINK-4003,1 52701U 22053AX  24014.14470046  .00000630  00000-0  57706-4 0  9992,2 52701  53.2191  60.5755 0001878 109.2981 250.8214 15.08831484 92296,6917.906,95.438,541.071,538.472,0.0
52701.0,STARLINK-4003,PAYLOAD,2024-01-14 09:49:54,15.08840806,0.0001485,53.2177,59.3852,103.0113,257.1045,7.4003e-05,8.9e-06,0.0,0 STARLINK-4003,1 52701U 22053AX  24014.40965500  .00000890  00000-0  74003-4 0  9992,2 52701  53.2177  59.3852 0001485 103.0113 257.1045 15.08840806 92332,6917.878,95.438,540.77,538.716,0.0
52701.0,STARLINK-4003,PAYLOAD,2024-01-15 09:40:40,15.08849238,0.0001645,53.2181,54.9242,101.4036,258.7141,0.00010584,1.397e-05,0.0,0 STARLINK-4003,1 52701U 22053AX  24015.40325083  .00001397  00000-0  10584-3 0  9995,2 52701  53.2181  54.9242 0001645 101.4036 258.7141 15.08849238 92911,6917.852,95.437,540.855,538.579,0.0
52701.0,STARLINK-4003,PAYLOAD,2024-01-16 03:09:57,15.08823892,0.0001775,53.2183,51.6555,88.8285,271.291,-6.8394e-05,-1.376e-05,0.0,0 STARLINK-4003,1 52701U 22053AX  24016.13191363 -.00001376  00000-0 -68394-4 0  9990,2 52701  53.2183  51.6555 0001775  88.8285 271.2910 15.08823892 92598,6917.93,95.439,541.023,538.567,0.0
52701.0,STARLINK-4003,PAYLOAD,2024-01-16 11:06:52,15.08835975,0.0001449,53.2191,50.1641,109.1415,250.9734,-8.4878e-05,-1.638e-05,0.0,0 STARLINK-4003,1 52701U 22053AX  24016.46310590 -.00001638  00000-0 -84878-4 0  9997,2 52701  53.2191  50.1641 0001449 109.1415 250.9734 15.08835975 92646,6917.893,95.438,540.76,538.755,0.0
52701.0,STARLINK-4003,PAYLOAD,2024-01-17 01:25:23,15.088088,0.0001513,53.2168,47.4876,70.5366,289.5789,-0.00022236,-3.822e-05,0.0,0 STARLINK-4003,1 52701U 22053AX  24017.05929872 -.00003822  00000-0 -22236-3 0  9998,2 52701  53.2168  47.4876 0001513  70.5366 289.5789 15.08808800 92732,6917.976,95.44,540.887,538.794,0.0
52701.0,STARLINK-4003,PAYLOAD,2024-01-17 09:22:16,15.08837603,0.0001018,53.2189,45.9941,86.86,273.2509,0.00010601,1.4e-05,0.0,0 STARLINK-4003,1 52701U 22053AX  24017.39047262  .00001400  00000-0  10601-3 0  9990,2 52701  53.2189  45.9941 0001018  86.8600 273.2509 15.08837603 92780,6917.888,95.438,540.457,539.048,0.0
52701.0,STARLINK-4003,PAYLOAD,2024-01-18 10:48:26,15.08850123,0.0001652,53.2185,41.242,79.6872,280.4307,0.00025792,3.82e-05,0.0,0 STARLINK-4003,1 52701U 22053AX  24018.45030723  .00003820  00000-0  25792-3 0  9997,2 52701  53.2185  41.2420 0001652  79.6872 280.4307 15.08850123 92948,6917.849,95.437,540.857,538.572,0.0
52701.0,STARLINK-4003,PAYLOAD,2024-01-19 01:06:55,15.08820795,0.0001399,53.2179,38.5627,98.0431,262.072,0.00042237,6.437e-05,0.0,0 STARLINK-4003,1 52701U 22053AX  24019.04648054  .00006437  00000-0  42237-3 0  9995,2 52701  53.2179  38.5627 0001399  98.0431 262.0720 15.08820795 93031,6917.939,95.439,540.772,538.836,0.0
52701.0,STARLINK-4003,PAYLOAD,2024-01-19 07:28:28,15.08839795,0.0001633,53.2183,37.3785,84.0479,276.07,0.0002755,4.099e-05,0.0,0 STARLINK-4003,1 52701U 22053AX  24019.31143565  .00004099  00000-0  27550-3 0  9995,2 52701  53.2183  37.3785 0001633  84.0479 276.0700 15.08839795 93073,6917.881,95.438,540.876,538.616,0.0
52701.0,STARLINK-4003,PAYLOAD,2024-01-20 07:19:14,15.08850246,0.0001421,53.219,32.9138,94.2858,265.8297,-7.3599e-05,-1.459e-05,0.0,0 STARLINK-4003,1 52701U 22053AX  24020.30503300 -.00001459  00000-0 -73599-4 0  9997,2 52701  53.2190  32.9138 0001421  94.2858 265.8297 15.08850246 93658,6917.849,95.437,540.697,538.731,0.0
52701.0,STARLINK-4003,PAYLOAD,2024-01-21 03:59:15,15.08846733,0.0001127,53.2181,29.0501,89.6151,270.497,-2.6306e-05,-7.07e-06,0.0,0 STARLINK-4003,1 52701U 22053AX  24021.16615159 -.00000707  00000-0 -26306-4 0  9997,2 52701  53.2181  29.0501 0001127  89.6151 270.4970 15.08846733 93359,6917.86,95.437,540.504,538.945,0.0
52701.0,STARLINK-4003,PAYLOAD,2024-01-21 05:34:38,15.08848376,0.0001135,53.2177,28.7521,90.1072,270.005,-1.4744e-05,-5.23e-06,0.0,0 STARLINK-4003,1 52701U 22053AX  24021.23239033 -.00000523  00000-0 -14744-4 0  9997,2 52701  53.2177  28.7521 0001135  90.1072 270.0050 15.08848376 93798,6917.855,95.437,540.505,538.935,0.0
52701.0,STARLINK-4003,PAYLOAD,2024-01-21 10:20:47,15.08857237,0.0001469,53.2175,27.8575,100.0519,260.0639,-4.875e-05,-1.064e-05,0.0,0 STARLINK-4003,1 52701U 22053AX  24021.43110401 -.00001064  00000-0 -48750-4 0  9991,2 52701  53.2175  27.8575 0001469 100.0519 260.0639 15.08857237 93396,6917.828,95.436,540.709,538.676,0.0
52701.0,STARLINK-4003,PAYLOAD,2024-01-22 03:50:02,15.08835373,0.0001281,53.2176,24.5847,86.921,273.1928,2.8376e-05,1.64e-06,0.0,0 STARLINK-4003,1 52701U 22053AX  24022.15975674  .00000164  00000-0  28376-4 0  9992,2 52701  53.2176  24.5847 0001281  86.9210 273.1928 15.08835373 93501,6917.895,95.438,540.646,538.873,0.0
52701.0,STARLINK-4003,PAYLOAD,2024-01-22 07:00:48,15.08839864,0.0001293,53.2177,23.9934,89.9664,270.1476,7.5325e-05,9.11e-06,0.0,0 STARLINK-4003,1 52701U 22053AX  24022.29223372  .00000911  00000-0  75325-4 0  9994,2 52701  53.2177  23.9934 0001293  89.9664 270.1476 15.08839864 93954,6917.881,95.438,540.64,538.851,0.0
